{
  "type": "FeatureCollection",
  "features": [
    {
      "type": "Feature",
      "properties": {},
      "geometry": {
        "coordinates": [
          [
            [
              4.873507601011966,
              45.759114680890576
            ],
            [
              4.86312815456202,
              45.75070996223866
            ],
            [
              4.869982574846006,
              45.74140081483765
            ],
            [
              4.8770123970378165,
              45.74708860803139
            ],
            [
              4.891997469424496,
              45.74876687056556
            ],
            [
              4.873507601011966,
              45.759114680890576
            ]
          ]
        ],
        "type": "Polygon"
      }
    }
  ]
}